[
  {
    "city": "Santa Maria",
    "address": "120 Jones Street",
    "zip": "93454",
    "state": "CA",
    "id": "745",
    "org_id": "1265"
  },
  {
    "city": "Santa Barbara",
    "address": "309 Voluntario Learning Center",
    "zip": "93101",
    "state": "CA",
    "id": "746",
    "org_id": "1166"
  },
  {
    "city": "Santa Barbara",
    "address": "710 Santa Barbara St.",
    "zip": "93101",
    "state": "CA",
    "id": "747",
    "org_id": "1266"
  },
  {
    "city": "Goleta",
    "address": "7266 Alameda Avenue",
    "zip": "93117",
    "state": "CA",
    "id": "748",
    "org_id": "1266"
  },
  {
    "city": "Santa Barbara",
    "address": "4750 Hollister Ave",
    "zip": "93110",
    "state": "CA",
    "id": "749",
    "org_id": "1266"
  },
  {
    "city": "Santa Barbara",
    "address": "700 Anapamu St",
    "zip": "93103",
    "state": "CA",
    "id": "750",
    "org_id": "1266"
  },
  {
    "city": "Santa Barbara",
    "address": "126 Haley St",
    "zip": "93101",
    "state": "CA",
    "id": "751",
    "org_id": "1267"
  },
  {
    "city": "Santa Maria",
    "address": "110 Lincoln St",
    "zip": "93458",
    "state": "CA",
    "id": "752",
    "org_id": "1267"
  },
  {
    "city": "Santa Barbara",
    "address": "1215 De La Vina Street",
    "zip": "93101",
    "state": "CA",
    "id": "753",
    "org_id": "1268"
  },
  {
    "city": "Santa Barbara",
    "address": "7 Figueroa",
    "zip": "93101",
    "state": "CA",
    "id": "754",
    "org_id": "1075"
  }
]
